{"type": "FeatureCollection", "features": [ {"type": "Feature", "properties": {"norad_id": 43622, "name": "BEIDOU-3 M13 (C32)", "group": "beidou", "lat": 36.53988395007457, "lon": 97.87308059452673, "alt_km": 21529.169598220284, "timestamp": "2025-12-23T11:34:48.429895+00:00", "meta": {"OBJECT_NAME": "BEIDOU-3 M13 (C32)", "OBJECT_ID": "2018-072A", "EPOCH": "2025-12-22T08:10:31.412640", "MEAN_MOTION": 1.86231166, "ECCENTRICITY": 0.00064111, "INCLINATION": 56.4667, "RA_OF_ASC_NODE": 68.5024, "ARG_OF_PERICENTER": 297.4685, "MEAN_ANOMALY": 62.5173, "EPHEMERIS_TYPE": 0, "CLASSIFICATION_TYPE": "U", "NORAD_CAT_ID": 43622, "ELEMENT_SET_NO": 999, "REV_AT_EPOCH": 4936, "BSTAR": 0, "MEAN_MOTION_DOT": -2.9e-07, "MEAN_MOTION_DDOT": 0}, "tle": {"line1": "1 43622U 18072A   25356.34064135 -.00000029  00000+0  00000+0 0  9992", "line2": "2 43622  56.4667  68.5024 0006411 297.4685  62.5173  1.86231166 49361"}}, "geometry": {"type": "Point", "coordinates": [97.87308059452673, 36.53988395007457]}}, {"type": "Feature", "properties": {"norad_id": 43623, "name": "BEIDOU-3 M14 (C33)", "group": "beidou", "lat": 35.552227069904006, "lon": -139.7671749537959, "alt_km": 21533.499126036833, "timestamp": "2025-12-23T11:34:48.429905+00:00", "meta": {"OBJECT_NAME": "BEIDOU-3 M14 (C33)", "OBJECT_ID": "2018-072B", "EPOCH": "2025-12-22T04:56:47.689728", "MEAN_MOTION": 1.86231163, "ECCENTRICITY": 0.00035757, "INCLINATION": 56.4687, "RA_OF_ASC_NODE": 68.5008, "ARG_OF_PERICENTER": 327.1514, "MEAN_ANOMALY": 32.8768, "EPHEMERIS_TYPE": 0, "CLASSIFICATION_TYPE": "U", "NORAD_CAT_ID": 43623, "ELEMENT_SET_NO": 999, "REV_AT_EPOCH": 4935, "BSTAR": 0, "MEAN_MOTION_DOT": -3e-07, "MEAN_MOTION_DDOT": 0}, "tle": {"line1": "1 43623U 18072B   25356.20610752 -.00000030  00000+0  00000+0 0  9992", "line2": "2 43623  56.4687  68.5008 0003575 327.1514  32.8768  1.86231163 49352"}}, "geometry": {"type": "Point", "coordinates": [-139.7671749537959, 35.552227069904006]}}, {"type": "Feature", "properties": {"norad_id": 43647, "name": "BEIDOU-3 M16 (C35)", "group": "beidou", "lat": 24.013596648141412, "lon": -35.17756138966517, "alt_km": 21504.62712310874, "timestamp": "2025-12-23T11:34:48.429915+00:00", "meta": {"OBJECT_NAME": "BEIDOU-3 M16 (C35)", "OBJECT_ID": "2018-078A", "EPOCH": "2025-12-22T21:37:04.499328", "MEAN_MOTION": 1.86232328, "ECCENTRICITY": 0.000742, "INCLINATION": 54.2525, "RA_OF_ASC_NODE": 306.1662, "ARG_OF_PERICENTER": 20.3198, "MEAN_ANOMALY": 339.7131, "EPHEMERIS_TYPE": 0, "CLASSIFICATION_TYPE": "U", "NORAD_CAT_ID": 43647, "ELEMENT_SET_NO": 999, "REV_AT_EPOCH": 4887, "BSTAR": 0, "MEAN_MOTION_DOT": -5.5e-07, "MEAN_MOTION_DDOT": 0}, "tle": {"line1": "1 43647U 18078A   25356.90074652 -.00000055  00000+0  00000+0 0  9991", "line2": "2 43647  54.2525 306.1662 0007420  20.3198 339.7131  1.86232328 48878"}}, "geometry": {"type": "Point", "coordinates": [-35.17756138966517, 24.013596648141412]}}, {"type": "Feature", "properties": {"norad_id": 43648, "name": "BEIDOU-3 M15 (C34)", "group": "beidou", "lat": -42.6673586365418, "lon": -95.42317960491984, "alt_km": 21530.19100125079, "timestamp": "2025-12-23T11:34:48.429924+00:00", "meta": {"OBJECT_NAME": "BEIDOU-3 M15 (C34)", "OBJECT_ID": "2018-078B", "EPOCH": "2025-12-22T11:49:56.675712", "MEAN_MOTION": 1.86232375, "ECCENTRICITY": 0.00040477, "INCLINATION": 54.2489, "RA_OF_ASC_NODE": 306.1811, "ARG_OF_PERICENTER": 19.7114, "MEAN_ANOMALY": 340.3062, "EPHEMERIS_TYPE": 0, "CLASSIFICATION_TYPE": "U", "NORAD_CAT_ID": 43648, "ELEMENT_SET_NO": 999, "REV_AT_EPOCH": 4888, "BSTAR": 0, "MEAN_MOTION_DOT": -5.6e-07, "MEAN_MOTION_DDOT": 0}, "tle": {"line1": "1 43648U 18078B   25356.49301708 -.00000056  00000+0  00000+0 0  9992", "line2": "2 43648  54.2489 306.1811 0004047  19.7114 340.3062  1.86232375 48880"}}, "geometry": {"type": "Point", "coordinates": [-95.42317960491984, -42.6673586365418]}}, {"type": "Feature", "properties": {"norad_id": 43683, "name": "BEIDOU-3 G1 (C59)", "group": "beidou", "lat": -2.1880927111821373, "lon": 45.96055738090461, "alt_km": 35788.81664203215, "timestamp": "2025-12-23T11:34:48.429935+00:00", "meta": {"OBJECT_NAME": "BEIDOU-3 G1 (C59)", "OBJECT_ID": "2018-085A", "EPOCH": "2025-12-23T04:31:38.584128", "MEAN_MOTION": 1.00267396, "ECCENTRICITY": 0.0001495, "INCLINATION": 2.6324, "RA_OF_ASC_NODE": 102.6584, "ARG_OF_PERICENTER": 44.3716, "MEAN_ANOMALY": 152.8467, "EPHEMERIS_TYPE": 0, "CLASSIFICATION_TYPE": "U", "NORAD_CAT_ID": 43683, "ELEMENT_SET_NO": 999, "REV_AT_EPOCH": 2629, "BSTAR": 0, "MEAN_MOTION_DOT": -2.59e-06, "MEAN_MOTION_DDOT": 0}, "tle": {"line1": "1 43683U 18085A   25357.18864102 -.00000259  00000+0  00000+0 0  9993", "line2": "2 43683   2.6324 102.6584 0001495  44.3716 152.8467  1.00267396 26299"}}, "geometry": {"type": "Point", "coordinates": [45.96055738090461, -2.1880927111821373]}}, {"type": "Feature", "properties": {"norad_id": 43706, "name": "BEIDOU-3 M17 (C36)", "group": "beidou", "lat": -13.6763239759822, "lon": 18.391063222931187, "alt_km": 21536.168197841973, "timestamp": "2025-12-23T11:34:48.429945+00:00", "meta": {"OBJECT_NAME": "BEIDOU-3 M17 (C36)", "OBJECT_ID": "2018-093A", "EPOCH": "2025-12-22T11:03:17.644896", "MEAN_MOTION": 1.86228432, "ECCENTRICITY": 0.00060427, "INCLINATION": 54.173, "RA_OF_ASC_NODE": 188.2918, "ARG_OF_PERICENTER": 307.405, "MEAN_ANOMALY": 284.4943, "EPHEMERIS_TYPE": 0, "CLASSIFICATION_TYPE": "U", "NORAD_CAT_ID": 43706, "ELEMENT_SET_NO": 999, "REV_AT_EPOCH": 4824, "BSTAR": 0, "MEAN_MOTION_DOT": 9.4e-07, "MEAN_MOTION_DDOT": 0}, "tle": {"line1": "1 43706U 18093A   25356.46062089  .00000094  00000+0  00000+0 0  9998", "line2": "2 43706  54.1730 188.2918 0006042 307.4050 284.4943  1.86228432 48248"}}, "geometry": {"type": "Point", "coordinates": [18.391063222931187, -13.6763239759822]}}, {"type": "Feature", "properties": {"norad_id": 43707, "name": "BEIDOU-3 M18 (C37)", "group": "beidou", "lat": -49.70952982107824, "lon": 129.76009873424803, "alt_km": 21526.398409813562, "timestamp": "2025-12-23T11:34:48.429955+00:00", "meta": {"OBJECT_NAME": "BEIDOU-3 M18 (C37)", "OBJECT_ID": "2018-093B", "EPOCH": "2025-12-20T21:39:28.587744", "MEAN_MOTION": 1.86226757, "ECCENTRICITY": 0.00062168, "INCLINATION": 54.1741, "RA_OF_ASC_NODE": 188.3365, "ARG_OF_PERICENTER": 353.7926, "MEAN_ANOMALY": 6.2524, "EPHEMERIS_TYPE": 0, "CLASSIFICATION_TYPE": "U", "NORAD_CAT_ID": 43707, "ELEMENT_SET_NO": 999, "REV_AT_EPOCH": 4821, "BSTAR": 0, "MEAN_MOTION_DOT": 9.5e-07, "MEAN_MOTION_DDOT": 0}, "tle": {"line1": "1 43707U 18093B   25354.90241421  .00000095  00000+0  00000+0 0  9996", "line2": "2 43707  54.1741 188.3365 0006216 353.7926   6.2524  1.86226757 48217"}}, "geometry": {"type": "Point", "coordinates": [129.76009873424803, -49.70952982107824]}}, {"type": "Feature", "properties": {"norad_id": 44231, "name": "BEIDOU-2 G8 (C01)", "group": "beidou", "lat": -0.6751537124622689, "lon": 50.56348812996951, "alt_km": 35777.6565744901, "timestamp": "2025-12-23T11:34:48.429965+00:00", "meta": {"OBJECT_NAME": "BEIDOU-2 G8 (C01)", "OBJECT_ID": "2019-027A", "EPOCH": "2025-12-19T12:14:23.449632", "MEAN_MOTION": 1.00276563, "ECCENTRICITY": 0.0008196, "INCLINATION": 1.6785, "RA_OF_ASC_NODE": 74.7229, "ARG_OF_PERICENTER": 258.5641, "MEAN_ANOMALY": 83.1013, "EPHEMERIS_TYPE": 0, "CLASSIFICATION_TYPE": "U", "NORAD_CAT_ID": 44231, "ELEMENT_SET_NO": 999, "REV_AT_EPOCH": 2427, "BSTAR": 0, "MEAN_MOTION_DOT": -2.24e-06, "MEAN_MOTION_DDOT": 0}, "tle": {"line1": "1 44231U 19027A   25353.50999363 -.00000224  00000+0  00000+0 0  9992", "line2": "2 44231   1.6785  74.7229 0008196 258.5641  83.1013  1.00276563 24270"}}, "geometry": {"type": "Point", "coordinates": [50.56348812996951, -0.6751537124622689]}}, {"type": "Feature", "properties": {"norad_id": 44337, "name": "BEIDOU-3 IGSO-2 (C39)", "group": "beidou", "lat": -35.61085218974516, "lon": 10.262179952498684, "alt_km": 35645.56981154119, "timestamp": "2025-12-23T11:34:48.429976+00:00", "meta": {"OBJECT_NAME": "BEIDOU-3 IGSO-2 (C39)", "OBJECT_ID": "2019-035A", "EPOCH": "2025-12-22T20:34:56.810208", "MEAN_MOTION": 1.00268278, "ECCENTRICITY": 0.00377374, "INCLINATION": 55.2288, "RA_OF_ASC_NODE": 160.4125, "ARG_OF_PERICENTER": 202.3518, "MEAN_ANOMALY": 156.9915, "EPHEMERIS_TYPE": 0, "CLASSIFICATION_TYPE": "U", "NORAD_CAT_ID": 44337, "ELEMENT_SET_NO": 999, "REV_AT_EPOCH": 2389, "BSTAR": 0, "MEAN_MOTION_DOT": -7.6e-07, "MEAN_MOTION_DDOT": 0}, "tle": {"line1": "1 44337U 19035A   25356.85760197 -.00000076  00000+0  00000+0 0  9995", "line2": "2 44337  55.2288 160.4125 0037737 202.3518 156.9915  1.00268278 23892"}}, "geometry": {"type": "Point", "coordinates": [10.262179952498684, -35.61085218974516]}}, {"type": "Feature", "properties": {"norad_id": 44542, "name": "BEIDOU-3 M24 (C46)", "group": "beidou", "lat": -46.01662377445329, "lon": 56.61848799759916, "alt_km": 21554.960204078707, "timestamp": "2025-12-23T11:34:48.429986+00:00", "meta": {"OBJECT_NAME": "BEIDOU-3 M24 (C46)", "OBJECT_ID": "2019-061A", "EPOCH": "2025-12-20T23:21:37.865088", "MEAN_MOTION": 1.86229471, "ECCENTRICITY": 0.0009592, "INCLINATION": 54.4004, "RA_OF_ASC_NODE": 188.7381, "ARG_OF_PERICENTER": 25.7188, "MEAN_ANOMALY": 334.3821, "EPHEMERIS_TYPE": 0, "CLASSIFICATION_TYPE": "U", "NORAD_CAT_ID": 44542, "ELEMENT_SET_NO": 999, "REV_AT_EPOCH": 4247, "BSTAR": 0, "MEAN_MOTION_DOT": 9.6e-07, "MEAN_MOTION_DDOT": 0}, "tle": {"line1": "1 44542U 19061A   25354.97335492  .00000096  00000+0  00000+0 0  9990", "line2": "2 44542  54.4004 188.7381 0009592  25.7188 334.3821  1.86229471 42471"}}, "geometry": {"type": "Point", "coordinates": [56.61848799759916, -46.01662377445329]}}]}